ALOS (DAICHI)           
1 28931U 06002A   26059.44860532  .00001549  00000+0  26794-3 0  9994
2 28931  98.1202  15.4517 0001304  51.8802 308.2521 14.69773929 72122
H-2A R/B                
1 28932U 06002B   26059.37039221  .00009009  00000+0  45480-3 0  9992
2 28932  98.2385 205.5957 0051942 273.1314  86.3974 15.16182382 93024
RESURS-DK 1             
1 29228U 06021A   26059.27788641  .00002643  00000+0  15684-3 0  9998
2 29228  69.9305 261.3706 0002628 167.4075 192.7157 15.12672692 86108
CZ-4B R/B               
1 29507U 06046C   26059.10980331  .00005018  00000+0  25577-3 0  9998
2 29507  97.5619 104.0444 0031859 302.2934  57.5214 15.16788202 58599
CZ-2C R/B               
1 31114U 07010B   26059.28556438  .00000126  00000+0  77157-4 0  9990
2 31114  98.3976 173.0362 0058184 322.4385  37.2734 14.20242374978389
COSMO-SKYMED 1          
1 31598U 07023A   26059.50406449  .00002980  00000+0  26794-3 0  9991
2 31598  97.8871 250.4633 0000989  82.3431 277.7902 14.96451282 13536
COSMOS 2428             
1 31792U 07029A   26059.47294969  .00000120  00000+0  89924-4 0  9990
2 31792  70.9414 222.6887 0008570 287.0458  72.9723 14.12943547962791
SL-16 R/B               
1 31793U 07029B   26059.51570493 -.00000238  00000+0 -98344-4 0  9993
2 31793  70.9756 191.6672 0002453 279.3894 150.4770 14.14834628964078
KORONAS-FOTON           
1 33504U 09003A   26059.36207609  .00012152  00000+0  27385-3 0  9990
2 33504  82.4295 285.5748 0010453 181.6430 178.4784 15.43058281944308
CZ-2C R/B               
1 37731U 11030B   26059.50252552  .00001882  00000+0  24300-3 0  9994
2 37731  97.8526  16.9509 0053298  21.8380  94.7195 14.81178292788730
H-2A R/B                
1 38341U 12025E   26059.49298588  .00004159  00000+0  37864-3 0  9993
2 38341  98.4702  25.8047 0044320 344.5660  15.4204 14.95069317746848
SHIJIAN-16 (SJ-16)      
1 39358U 13057A   26059.51157345  .00001396  00000+0  13923-3 0  9996
2 39358  74.9714 202.4614 0015882 136.2775 223.9674 14.92292126670134
