CCSDS_OMM_VERS = 2.0
CREATION_DATE  = 
ORIGINATOR     = 

OBJECT_NAME    = ALOS (DAICHI)
OBJECT_ID      = 2006-002A
CENTER_NAME    = EARTH
REF_FRAME      = TEME
TIME_SYSTEM    = UTC
MEAN_ELEMENT_THEORY = SGP/SGP4

EPOCH          = 2026-02-28T10:45:59.499648
MEAN_MOTION    = 14.69773929
ECCENTRICITY   = .0001304
INCLINATION    = 98.1202
RA_OF_ASC_NODE = 15.4517
ARG_OF_PERICENTER = 51.8802
MEAN_ANOMALY   = 308.2521

EPHEMERIS_TYPE = 0
CLASSIFICATION_TYPE = U
NORAD_CAT_ID   = 28931
ELEMENT_SET_NO = 999
REV_AT_EPOCH   = 7212
BSTAR          = .26794E-3
MEAN_MOTION_DOT = .1549E-4
MEAN_MOTION_DDOT = 0

CCSDS_OMM_VERS = 2.0
CREATION_DATE  = 
ORIGINATOR     = 

OBJECT_NAME    = H-2A R/B
OBJECT_ID      = 2006-002B
CENTER_NAME    = EARTH
REF_FRAME      = TEME
TIME_SYSTEM    = UTC
MEAN_ELEMENT_THEORY = SGP/SGP4

EPOCH          = 2026-02-28T08:53:21.886944
MEAN_MOTION    = 15.16182382
ECCENTRICITY   = .0051942
INCLINATION    = 98.2385
RA_OF_ASC_NODE = 205.5957
ARG_OF_PERICENTER = 273.1314
MEAN_ANOMALY   = 86.3974

EPHEMERIS_TYPE = 0
CLASSIFICATION_TYPE = U
NORAD_CAT_ID   = 28932
ELEMENT_SET_NO = 999
REV_AT_EPOCH   = 9302
BSTAR          = .4548E-3
MEAN_MOTION_DOT = .9009E-4
MEAN_MOTION_DDOT = 0

CCSDS_OMM_VERS = 2.0
CREATION_DATE  = 
ORIGINATOR     = 

OBJECT_NAME    = RESURS-DK 1
OBJECT_ID      = 2006-021A
CENTER_NAME    = EARTH
REF_FRAME      = TEME
TIME_SYSTEM    = UTC
MEAN_ELEMENT_THEORY = SGP/SGP4

EPOCH          = 2026-02-28T06:40:09.385824
MEAN_MOTION    = 15.12672692
ECCENTRICITY   = .0002628
INCLINATION    = 69.9305
RA_OF_ASC_NODE = 261.3706
ARG_OF_PERICENTER = 167.4075
MEAN_ANOMALY   = 192.7157

EPHEMERIS_TYPE = 0
CLASSIFICATION_TYPE = U
NORAD_CAT_ID   = 29228
ELEMENT_SET_NO = 999
REV_AT_EPOCH   = 8610
BSTAR          = .15684E-3
MEAN_MOTION_DOT = .2643E-4
MEAN_MOTION_DDOT = 0

CCSDS_OMM_VERS = 2.0
CREATION_DATE  = 
ORIGINATOR     = 

OBJECT_NAME    = CZ-4B R/B
OBJECT_ID      = 2006-046C
CENTER_NAME    = EARTH
REF_FRAME      = TEME
TIME_SYSTEM    = UTC
MEAN_ELEMENT_THEORY = SGP/SGP4

EPOCH          = 2026-02-28T02:38:07.005984
MEAN_MOTION    = 15.16788202
ECCENTRICITY   = .00318592
INCLINATION    = 97.5619
RA_OF_ASC_NODE = 104.0444
ARG_OF_PERICENTER = 302.2934
MEAN_ANOMALY   = 57.5214

EPHEMERIS_TYPE = 0
CLASSIFICATION_TYPE = U
NORAD_CAT_ID   = 29507
ELEMENT_SET_NO = 999
REV_AT_EPOCH   = 5859
BSTAR          = .255773E-3
MEAN_MOTION_DOT = .5018E-4
MEAN_MOTION_DDOT = 0

CCSDS_OMM_VERS = 2.0
CREATION_DATE  = 
ORIGINATOR     = 

OBJECT_NAME    = CZ-2C R/B
OBJECT_ID      = 2007-010B
CENTER_NAME    = EARTH
REF_FRAME      = TEME
TIME_SYSTEM    = UTC
MEAN_ELEMENT_THEORY = SGP/SGP4

EPOCH          = 2026-02-28T06:51:12.762432
MEAN_MOTION    = 14.20242374
ECCENTRICITY   = .0058184
INCLINATION    = 98.3976
RA_OF_ASC_NODE = 173.0362
ARG_OF_PERICENTER = 322.4385
MEAN_ANOMALY   = 37.2734

EPHEMERIS_TYPE = 0
CLASSIFICATION_TYPE = U
NORAD_CAT_ID   = 31114
ELEMENT_SET_NO = 999
REV_AT_EPOCH   = 97838
BSTAR          = .77157E-4
MEAN_MOTION_DOT = .126E-5
MEAN_MOTION_DDOT = 0

CCSDS_OMM_VERS = 2.0
CREATION_DATE  = 
ORIGINATOR     = 

OBJECT_NAME    = COSMO-SKYMED 1
OBJECT_ID      = 2007-023A
CENTER_NAME    = EARTH
REF_FRAME      = TEME
TIME_SYSTEM    = UTC
MEAN_ELEMENT_THEORY = SGP/SGP4

EPOCH          = 2026-02-28T12:05:51.171936
MEAN_MOTION    = 14.96451282
ECCENTRICITY   = .0000989
INCLINATION    = 97.8871
RA_OF_ASC_NODE = 250.4633
ARG_OF_PERICENTER = 82.3431
MEAN_ANOMALY   = 277.7902

EPHEMERIS_TYPE = 0
CLASSIFICATION_TYPE = U
NORAD_CAT_ID   = 31598
ELEMENT_SET_NO = 999
REV_AT_EPOCH   = 1353
BSTAR          = .26794E-3
MEAN_MOTION_DOT = .298E-4
MEAN_MOTION_DDOT = 0

CCSDS_OMM_VERS = 2.0
CREATION_DATE  = 
ORIGINATOR     = 

OBJECT_NAME    = COSMOS 2428
OBJECT_ID      = 2007-029A
CENTER_NAME    = EARTH
REF_FRAME      = TEME
TIME_SYSTEM    = UTC
MEAN_ELEMENT_THEORY = SGP/SGP4

EPOCH          = 2026-02-28T11:21:02.853216
MEAN_MOTION    = 14.12943547
ECCENTRICITY   = .000857
INCLINATION    = 70.9414
RA_OF_ASC_NODE = 222.6887
ARG_OF_PERICENTER = 287.0458
MEAN_ANOMALY   = 72.9723

EPHEMERIS_TYPE = 0
CLASSIFICATION_TYPE = U
NORAD_CAT_ID   = 31792
ELEMENT_SET_NO = 999
REV_AT_EPOCH   = 96279
BSTAR          = .89924E-4
MEAN_MOTION_DOT = .12E-5
MEAN_MOTION_DDOT = 0

CCSDS_OMM_VERS = 2.0
CREATION_DATE  = 
ORIGINATOR     = 

OBJECT_NAME    = SL-16 R/B
OBJECT_ID      = 2007-029B
CENTER_NAME    = EARTH
REF_FRAME      = TEME
TIME_SYSTEM    = UTC
MEAN_ELEMENT_THEORY = SGP/SGP4

EPOCH          = 2026-02-28T12:22:36.905952
MEAN_MOTION    = 14.14834628
ECCENTRICITY   = .0002453
INCLINATION    = 70.9756
RA_OF_ASC_NODE = 191.6672
ARG_OF_PERICENTER = 279.3894
MEAN_ANOMALY   = 150.4770

EPHEMERIS_TYPE = 0
CLASSIFICATION_TYPE = U
NORAD_CAT_ID   = 31793
ELEMENT_SET_NO = 999
REV_AT_EPOCH   = 96407
BSTAR          = -.98344E-4
MEAN_MOTION_DOT = -.238E-5
MEAN_MOTION_DDOT = 0

CCSDS_OMM_VERS = 2.0
CREATION_DATE  = 
ORIGINATOR     = 

OBJECT_NAME    = KORONAS-FOTON
OBJECT_ID      = 2009-003A
CENTER_NAME    = EARTH
REF_FRAME      = TEME
TIME_SYSTEM    = UTC
MEAN_ELEMENT_THEORY = SGP/SGP4

EPOCH          = 2026-02-28T08:41:23.374176
MEAN_MOTION    = 15.43058281
ECCENTRICITY   = .0010453
INCLINATION    = 82.4295
RA_OF_ASC_NODE = 285.5748
ARG_OF_PERICENTER = 181.6430
MEAN_ANOMALY   = 178.4784

EPHEMERIS_TYPE = 0
CLASSIFICATION_TYPE = U
NORAD_CAT_ID   = 33504
ELEMENT_SET_NO = 999
REV_AT_EPOCH   = 94430
BSTAR          = .27385E-3
MEAN_MOTION_DOT = .12152E-3
MEAN_MOTION_DDOT = 0

CCSDS_OMM_VERS = 2.0
CREATION_DATE  = 
ORIGINATOR     = 

OBJECT_NAME    = CZ-2C R/B
OBJECT_ID      = 2011-030B
CENTER_NAME    = EARTH
REF_FRAME      = TEME
TIME_SYSTEM    = UTC
MEAN_ELEMENT_THEORY = SGP/SGP4

EPOCH          = 2026-02-28T12:03:38.204928
MEAN_MOTION    = 14.81178292
ECCENTRICITY   = .0053298
INCLINATION    = 97.8526
RA_OF_ASC_NODE = 16.9509
ARG_OF_PERICENTER = 21.8380
MEAN_ANOMALY   = 94.7195

EPHEMERIS_TYPE = 0
CLASSIFICATION_TYPE = U
NORAD_CAT_ID   = 37731
ELEMENT_SET_NO = 999
REV_AT_EPOCH   = 78873
BSTAR          = .243E-3
MEAN_MOTION_DOT = .1882E-4
MEAN_MOTION_DDOT = 0

CCSDS_OMM_VERS = 2.0
CREATION_DATE  = 
ORIGINATOR     = 

OBJECT_NAME    = H-2A R/B
OBJECT_ID      = 2012-025E
CENTER_NAME    = EARTH
REF_FRAME      = TEME
TIME_SYSTEM    = UTC
MEAN_ELEMENT_THEORY = SGP/SGP4

EPOCH          = 2026-02-28T11:49:53.980032
MEAN_MOTION    = 14.95069317
ECCENTRICITY   = .004432
INCLINATION    = 98.4702
RA_OF_ASC_NODE = 25.8047
ARG_OF_PERICENTER = 344.5660
MEAN_ANOMALY   = 15.4204

EPHEMERIS_TYPE = 0
CLASSIFICATION_TYPE = U
NORAD_CAT_ID   = 38341
ELEMENT_SET_NO = 999
REV_AT_EPOCH   = 74684
BSTAR          = .37864E-3
MEAN_MOTION_DOT = .4159E-4
MEAN_MOTION_DDOT = 0

CCSDS_OMM_VERS = 2.0
CREATION_DATE  = 
ORIGINATOR     = 

OBJECT_NAME    = SHIJIAN-16 (SJ-16)
OBJECT_ID      = 2013-057A
CENTER_NAME    = EARTH
REF_FRAME      = TEME
TIME_SYSTEM    = UTC
MEAN_ELEMENT_THEORY = SGP/SGP4

EPOCH          = 2026-02-28T12:16:39.946080
MEAN_MOTION    = 14.92292126
ECCENTRICITY   = .0015882
INCLINATION    = 74.9714
RA_OF_ASC_NODE = 202.4614
ARG_OF_PERICENTER = 136.2775
MEAN_ANOMALY   = 223.9674

EPHEMERIS_TYPE = 0
CLASSIFICATION_TYPE = U
NORAD_CAT_ID   = 39358
ELEMENT_SET_NO = 999
REV_AT_EPOCH   = 67013
BSTAR          = .13923E-3
MEAN_MOTION_DOT = .1396E-4
MEAN_MOTION_DDOT = 0

